H1 CPF 01  gfz 2022 10 22 12  7952 terrasarx 
H2 0702601  6201 31698    2022 10 22 12 59 42 2022 10 27 00 00 42   120 1 1  0 0 0
H9
10 0 59875  26622.000000  0    5535663.719  -1543622.843   3789758.926
10 0 59875  26742.000000  0    5911255.234  -1851374.507   3006112.347
10 0 59875  26862.000000  0    6178341.398  -2132379.475   2169532.173
10 0 59875  26982.000000  0    6332775.908  -2379787.628   1294747.484
10 0 59875  27102.000000  0    6372516.005  -2587288.932    397165.522
10 0 59875  27222.000000  0    6297649.804  -2749263.656   -507407.754
10 0 59875  27342.000000  0    6110380.910  -2860919.097  -1403055.105
10 0 59875  27462.000000  0    5814968.774  -2918409.722  -2274037.437
10 0 59875  27582.000000  0    5417628.373  -2918937.089  -3105076.893
10 0 59875  27702.000000  0    4926392.718  -2860827.547  -3881628.837
10 0 59875  27822.000000  0    4350942.013  -2743587.064  -4590136.941
10 0 59875  27942.000000  0    3702403.187  -2567931.367  -5218267.595
10 0 59875  28062.000000  0    2993125.147  -2335790.545  -5755117.196
10 0 59875  28182.000000  0    2236438.493  -2050289.786  -6191390.671
10 0 59875  28302.000000  0    1446403.115  -1715707.097  -6519552.940
10 0 59875  28422.000000  0     637545.828  -1337407.003  -6733948.718
10 0 59875  28542.000000  0    -175404.000   -921753.907  -6830889.323
10 0 59875  28662.000000  0    -977777.338   -476006.097  -6808708.619
10 0 59875  28782.000000  0   -1755223.874     -8191.842  -6667788.580
10 0 59875  28902.000000  0   -2493962.969    473031.848  -6410552.584
10 0 59875  29022.000000  0   -3181022.146    958534.736  -6041427.932
10 0 59875  29142.000000  0   -3804461.632   1438881.871  -5566778.652
10 0 59875  29262.000000  0   -4353583.265   1904512.437  -4994807.190
10 0 59875  29382.000000  0   -4819118.757   2345927.647  -4335424.374
10 0 59875  29502.000000  0   -5193393.003   2753883.107  -3600087.454
10 0 59875  29622.000000  0   -5470459.118   3119580.749  -2801610.045
10 0 59875  29742.000000  0   -5646203.467   3434858.149  -1953945.166
10 0 59875  29862.000000  0   -5718415.887   3692370.351  -1071943.254
10 0 59875  29982.000000  0   -5686822.580   3885758.303   -171089.580
10 0 59875  30102.000000  0   -5553080.913   4009800.565    732773.025
10 0 59875  30222.000000  0   -5320734.479   4060543.123   1623732.186
10 0 59875  30342.000000  0   -4995128.338   4035403.142   2486095.340
10 0 59875  30462.000000  0   -4583288.924   3933245.379   3304673.916
10 0 59875  30582.000000  0   -4093771.296   3754429.299   4065058.447
10 0 59875  30702.000000  0   -3536476.977   3500824.002   4753876.560
10 0 59875  30822.000000  0   -2922448.445   3175793.241   5359029.698
10 0 59875  30942.000000  0   -2263643.876   2784149.803   5869904.338
10 0 59875  31062.000000  0   -1572698.940   2332080.990   6277554.383
10 0 59875  31182.000000  0    -862679.611   1827046.611   6574851.709
10 0 59875  31302.000000  0    -146833.910   1277652.751   6756602.916
10 0 59875  31422.000000  0     561654.833    693503.261   6819635.216
10 0 59875  31542.000000  0    1249910.219     85031.559   6762847.838
10 0 59875  31662.000000  0    1905595.522   -536684.845   6587230.298
10 0 59875  31782.000000  0    2517134.159  -1160125.530   6295846.921
10 0 59875  31902.000000  0    3073914.707  -1773539.645   5893787.455
10 0 59875  32022.000000  0    3566478.053  -2365167.662   5388083.836
10 0 59875  32142.000000  0    3986681.937  -2923467.570   4787592.777
10 0 59875  32262.000000  0    4327840.513  -3437342.327   4102846.589
10 0 59875  32382.000000  0    4584836.148  -3896364.186   3345872.583
10 0 59875  32502.000000  0    4754201.262  -4290990.533   2529983.481
10 0 59875  32622.000000  0    4834167.455  -4612765.577   1669541.089
10 0 59875  32742.000000  0    4824679.423  -4854502.931    779698.912
10 0 59875  32862.000000  0    4727374.070  -5010445.404   -123871.352
10 0 59875  32982.000000  0    4545525.110  -5076396.709  -1025263.791
10 0 59875  33102.000000  0    4283955.373  -5049822.001  -1908627.501
10 0 59875  33222.000000  0    3948917.026  -4929914.350  -2758453.308
10 0 59875  33342.000000  0    3547944.659  -4717625.946  -3559851.863
10 0 59875  33462.000000  0    3089684.808  -4415663.889  -4298816.762
10 0 59875  33582.000000  0    2583707.178  -4028451.368  -4962468.784
10 0 59875  33702.000000  0    2040301.260  -3562054.401  -5539274.890
10 0 59875  33822.000000  0    1470265.631  -3024079.215  -6019238.587
10 0 59875  33942.000000  0     884693.657  -2423543.221  -6394063.054
10 0 59875  34062.000000  0     294758.478  -1770719.827  -6657284.461
10 0 59875  34182.000000  0    -288497.365  -1076960.440  -6804372.630
10 0 59875  34302.000000  0    -854363.485   -354498.130  -6832799.850
10 0 59875  34422.000000  0   -1392653.214    383763.916  -6742079.057
10 0 59875  34542.000000  0   -1893882.900   1124476.862  -6533770.659
10 0 59875  34662.000000  0   -2349434.954   1854081.599  -6211458.563
10 0 59875  34782.000000  0   -2751703.734   2559050.773  -5780695.617
10 0 59875  34902.000000  0   -3094222.859   3226136.145  -5248918.526
10 0 59875  35022.000000  0   -3371771.637   3842616.973  -4625331.420
10 0 59875  35142.000000  0   -3580458.922   4396545.057  -3920757.210
10 0 59875  35262.000000  0   -3717780.386   4876980.413  -3147457.987
10 0 59875  35382.000000  0   -3782648.434   5274212.412  -2318928.971
10 0 59875  35502.000000  0   -3775395.945   5579963.209  -1449667.807
10 0 59875  35622.000000  0   -3697751.272   5787568.417   -554920.933
10 0 59875  35742.000000  0   -3552783.693   5892127.056    349588.491
10 0 59875  35862.000000  0   -3344822.923   5890617.967   1247943.216
10 0 59875  35982.000000  0   -3079351.133   5781979.844   2124322.304
10 0 59875  36102.000000  0   -2762870.018   5567149.936   2963290.288
10 0 59875  36222.000000  0   -2402748.466   5249060.798   3750076.403
10 0 59875  36342.000000  0   -2007055.158   4832597.968   4470839.397
10 0 59875  36462.000000  0   -1584379.992   4324519.093   5112913.417
10 0 59875  36582.000000  0   -1143648.108   3733336.855   5665030.912
10 0 59875  36702.000000  0    -693931.597   3069167.648   6117516.915
10 0 59875  36822.000000  0    -244263.547   2343550.829   6462453.113
10 0 59875  36942.000000  0     196542.027   1569243.386   6693809.921
10 0 59875  37062.000000  0     620062.013    759992.376   6807546.763
10 0 59875  37182.000000  0    1018424.100    -69710.346   6801677.109
10 0 59875  37302.000000  0    1384451.998   -904886.386   6676301.608
10 0 59875  37422.000000  0    1711794.409  -1730340.908   6433607.072
10 0 59875  37542.000000  0    1995035.603  -2530938.388   6077831.216
10 0 59875  37662.000000  0    2229785.988  -3291881.403   5615193.721
10 0 59875  37782.000000  0    2412751.161  -3998986.887   5053792.737
10 0 59875  37902.000000  0    2541777.645  -4638954.241   4403468.696
10 0 59875  38022.000000  0    2615876.150  -5199621.916   3675637.144
10 0 59875  38142.000000  0    2635220.522  -5670206.475   2883090.687
10 0 59875  38262.000000  0    2601121.273  -6041518.941   2039774.103
10 0 59875  38382.000000  0    2515974.904  -6306150.943   1160535.215
10 0 59875  38502.000000  0    2383190.713  -6458627.321    260859.198
10 0 59875  38622.000000  0    2207096.811  -6495523.786   -643411.166
10 0 59875  38742.000000  0    1992826.388  -6415542.519  -1536365.061
10 0 59875  38862.000000  0    1746186.369  -6219543.234  -2402312.408
10 0 59875  38982.000000  0    1473513.661  -5910532.356  -3226067.066
10 0 59875  39102.000000  0    1181522.359  -5493605.310  -3993217.322
10 0 59875  39222.000000  0     877148.112  -4975850.979  -4690377.267
10 0 59875  39342.000000  0     567390.962  -4366219.016  -5305416.534
10 0 59875  39462.000000  0     259161.212  -3675354.218  -5827664.150
10 0 59875  39582.000000  0     -40868.438  -2915401.349  -6248083.981
10 0 59875  39702.000000  0    -326401.332  -2099785.719  -6559419.634
10 0 59875  39822.000000  0    -591643.587  -1242973.927  -6756308.324
10 0 59875  39942.000000  0    -831416.781   -360219.065  -6835364.109
10 0 59875  40062.000000  0   -1041255.103    532706.918  -6795229.409
10 0 59875  40182.000000  0   -1217486.152   1419787.850  -6636594.765
10 0 59875  40302.000000  0   -1357293.761   2285043.328  -6362188.069
10 0 59875  40422.000000  0   -1458762.170   3112809.450  -5976733.569
10 0 59875  40542.000000  0   -1520901.704   3888019.255  -5486880.064
10 0 59875  40662.000000  0   -1543654.479   4596476.170  -4901096.903
10 0 59875  40782.000000  0   -1527880.862   5225117.822  -4229539.287
10 0 59875  40902.000000  0   -1475326.123   5762263.869  -3483881.656
10 0 59875  41022.000000  0   -1388567.245   6197841.676  -2677122.349
10 0 59875  41142.000000  0   -1270941.368   6523586.351  -1823362.827
10 0 59875  41262.000000  0   -1126456.942   6733209.753   -937562.162
10 0 59875  41382.000000  0    -959689.604   6822532.281    -35273.373
10 0 59875  41502.000000  0    -775664.737   6789576.316    867634.917
10 0 59875  41622.000000  0    -579729.765   6634615.241   1755267.348
10 0 59875  41742.000000  0    -377419.713   6360174.029   2611992.217
10 0 59875  41862.000000  0    -174319.725   5970984.182   3422723.901
10 0 59875  41982.000000  0      24071.797   5473896.836   4173193.565
10 0 59875  42102.000000  0     212476.214   4877756.382   4850206.550
10 0 59875  42222.000000  0     385961.921   4193228.428   5441876.950
10 0 59875  42342.000000  0     540061.223   3432599.737   5937830.230
10 0 59875  42462.000000  0     670874.610   2609550.277   6329382.568
10 0 59875  42582.000000  0     775159.730   1738899.970   6609686.769
10 0 59875  42702.000000  0     850404.457    836337.576   6773846.149
10 0 59875  42822.000000  0     894882.355    -81863.864   6818994.034
10 0 59875  42942.000000  0     907689.738   -999139.061   6744341.123
10 0 59875  43062.000000  0     888763.528  -1898929.224   6551189.451
99
